{"type": "FeatureCollection", "features": [ {"type": "Feature", "properties": {"norad_id": 66911, "name": "1998-067XX", "group": "stations", "lat": 43.08182840912035, "lon": 136.71045596588243, "alt_km": 402.95715702223606, "timestamp": "2025-12-23T11:34:46.979490+00:00", "meta": {"OBJECT_NAME": "1998-067XX", "OBJECT_ID": "1998-067XX", "EPOCH": "2025-12-22T19:52:48.657216", "MEAN_MOTION": 15.5335973, "ECCENTRICITY": 0.0003678, "INCLINATION": 51.6306, "RA_OF_ASC_NODE": 92.1584, "ARG_OF_PERICENTER": 266.6308, "MEAN_ANOMALY": 93.4262, "EPHEMERIS_TYPE": 0, "CLASSIFICATION_TYPE": "U", "NORAD_CAT_ID": 66911, "ELEMENT_SET_NO": 999, "REV_AT_EPOCH": 317, "BSTAR": 0.0011443, "MEAN_MOTION_DOT": 0.00073883, "MEAN_MOTION_DDOT": 0}, "tle": {"line1": "1 66911U 98067XX  25356.82834094  .00073883  00000+0  11443-2 0  9995", "line2": "2 66911  51.6306  92.1584 0003678 266.6308  93.4262 15.53359730  3178"}}, "geometry": {"type": "Point", "coordinates": [136.71045596588243, 43.08182840912035]}}, {"type": "Feature", "properties": {"norad_id": 66912, "name": "1998-067XY", "group": "stations", "lat": -2.8591779851866517, "lon": 86.76597052337604, "alt_km": 410.86346936155496, "timestamp": "2025-12-23T11:34:46.979499+00:00", "meta": {"OBJECT_NAME": "1998-067XY", "OBJECT_ID": "1998-067XY", "EPOCH": "2025-12-22T13:57:42.061248", "MEAN_MOTION": 15.52056622, "ECCENTRICITY": 0.00039127, "INCLINATION": 51.6324, "RA_OF_ASC_NODE": 93.5129, "ARG_OF_PERICENTER": 278.0711, "MEAN_ANOMALY": 81.9835, "EPHEMERIS_TYPE": 0, "CLASSIFICATION_TYPE": "U", "NORAD_CAT_ID": 66912, "ELEMENT_SET_NO": 999, "REV_AT_EPOCH": 313, "BSTAR": 0.00086867978, "MEAN_MOTION_DOT": 0.0005325, "MEAN_MOTION_DDOT": 0}, "tle": {"line1": "1 66912U 98067XY  25356.58173682  .00053250  00000+0  86868-3 0  9998", "line2": "2 66912  51.6324  93.5129 0003912 278.0711  81.9835 15.52056622  3132"}}, "geometry": {"type": "Point", "coordinates": [86.76597052337604, -2.8591779851866517]}}]}